[{"OBJECT_NAME":"TIANMU-1 07","OBJECT_ID":"2023-101A","EPOCH":"2026-03-06T13:47:20.454720","MEAN_MOTION":15.29118809,"ECCENTRICITY":0.00046097,"INCLINATION":97.2728,"RA_OF_ASC_NODE":118.5929,"ARG_OF_PERICENTER":142.4105,"MEAN_ANOMALY":217.7458,"EPHEMERIS_TYPE":0,"CLASSIFICATION_TYPE":"U","NORAD_CAT_ID":57399,"ELEMENT_SET_NO":999,"REV_AT_EPOCH":14596,"BSTAR":0.00029794732,"MEAN_MOTION_DOT":8.352e-5,"MEAN_MOTION_DDOT":0},{"OBJECT_NAME":"STARLINK-31377","OBJECT_ID":"2024-027H","EPOCH":"2026-03-09T22:42:07.964064","MEAN_MOTION":15.30183299,"ECCENTRICITY":9.738e-5,"INCLINATION":53.1599,"RA_OF_ASC_NODE":308.7102,"ARG_OF_PERICENTER":86.7783,"MEAN_ANOMALY":273.3329,"EPHEMERIS_TYPE":0,"CLASSIFICATION_TYPE":"U","NORAD_CAT_ID":58938,"ELEMENT_SET_NO":999,"REV_AT_EPOCH":11736,"BSTAR":4.3431e-8,"MEAN_MOTION_DOT":-3.58e-6,"MEAN_MOTION_DDOT":0}]
